start=new Date('2021-11-08T00:00:00.000Z').valueOf();
sats=[{"PERIAPSIS":"546.264","COUNTRY_CODE":"US","MEAN_MOTION":"15.06366719","TLE_LINE2":"2 46043  53.0558  33.1468 0001519  70.2811 289.8342 15.06366719 70282","INCLINATION":"53.0558","FILE":"3207836","OBJECT_NAME":"STARLINK-1582","RA_OF_ASC_NODE":"33.1468","NORAD_CAT_ID":"46043","ELEMENT_SET_NO":"999","GP_ID":"189214242","TIME_SYSTEM":"UTC","APOAPSIS":"548.368","OBJECT_TYPE":"PAYLOAD","MEAN_ANOMALY":"289.8342","EPOCH":"2021-11-07T15:43:00.905376","BSTAR":"0.00082389000000","CENTER_NAME":"EARTH","MEAN_MOTION_DDOT":"0.0000000000000","OBJECT_ID":"2020-055S","MEAN_MOTION_DOT":"0.00012001","RCS_SIZE":"LARGE","REV_AT_EPOCH":"7028","PERIOD":"95.594","CLASSIFICATION_TYPE":"U","REF_FRAME":"TEME","EPHEMERIS_TYPE":"0","ARG_OF_PERICENTER":"70.2811","LAUNCH_DATE":"2020-08-07","MEAN_ELEMENT_THEORY":"SGP4","SEMIMAJOR_AXIS":"6925.451","DECAY_DATE":null,"SITE":"AFETR","TLE_LINE1":"1 46043U 20055S   21311.65487159  .00012001  00000-0  82389-3 0  9999","ECCENTRICITY":"0.00015190"},{"EPOCH":"2021-11-07T17:39:46.602720","BSTAR":"0.00148700000000","MEAN_MOTION_DDOT":"0.0000000000000","CENTER_NAME":"EARTH","MEAN_ANOMALY":"289.5389","OBJECT_TYPE":"PAYLOAD","APOAPSIS":"548.268","REV_AT_EPOCH":"7030","PERIOD":"95.593","OBJECT_ID":"2020-055T","MEAN_MOTION_DOT":"0.00021928","RCS_SIZE":"LARGE","TLE_LINE2":"2 46044  53.0546  32.7742 0001455  70.5757 289.5389 15.06384834 70300","PERIAPSIS":"546.252","COUNTRY_CODE":"US","MEAN_MOTION":"15.06384834","RA_OF_ASC_NODE":"32.7742","NORAD_CAT_ID":"46044","GP_ID":"189214487","ELEMENT_SET_NO":"999","TIME_SYSTEM":"UTC","INCLINATION":"53.0546","FILE":"3207836","OBJECT_NAME":"STARLINK-1584","TLE_LINE1":"1 46044U 20055T   21311.73595605  .00021928  00000-0  14870-2 0  9992","SITE":"AFETR","ECCENTRICITY":"0.00014550","ARG_OF_PERICENTER":"70.5757","EPHEMERIS_TYPE":"0","LAUNCH_DATE":"2020-08-07","CLASSIFICATION_TYPE":"U","REF_FRAME":"TEME","SEMIMAJOR_AXIS":"6925.395","DECAY_DATE":null,"MEAN_ELEMENT_THEORY":"SGP4"},{"SEMIMAJOR_AXIS":"6925.416","DECAY_DATE":null,"MEAN_ELEMENT_THEORY":"SGP4","EPHEMERIS_TYPE":"0","ARG_OF_PERICENTER":"65.8835","LAUNCH_DATE":"2020-08-07","CLASSIFICATION_TYPE":"U","REF_FRAME":"TEME","ECCENTRICITY":"0.00012670","TLE_LINE1":"1 46045U 20055U   21311.61430815 -.00002309  00000-0 -13623-3 0  9991","SITE":"AFETR","NORAD_CAT_ID":"46045","RA_OF_ASC_NODE":"33.3278","TIME_SYSTEM":"UTC","ELEMENT_SET_NO":"999","GP_ID":"189213742","OBJECT_NAME":"STARLINK-1591","FILE":"3207836","INCLINATION":"53.0548","TLE_LINE2":"2 46045  53.0548  33.3278 0001267  65.8835 294.2286 15.06377972 70268","PERIAPSIS":"546.404","MEAN_MOTION":"15.06377972","COUNTRY_CODE":"US","REV_AT_EPOCH":"7026","PERIOD":"95.594","OBJECT_ID":"2020-055U","RCS_SIZE":"LARGE","MEAN_MOTION_DOT":"-0.00002309","EPOCH":"2021-11-07T14:44:36.224160","BSTAR":"-0.00013623000000","MEAN_MOTION_DDOT":"0.0000000000000","CENTER_NAME":"EARTH","MEAN_ANOMALY":"294.2286","OBJECT_TYPE":"PAYLOAD","APOAPSIS":"548.159"},{"EPHEMERIS_TYPE":"0","ARG_OF_PERICENTER":"120.5747","LAUNCH_DATE":"2020-08-07","CLASSIFICATION_TYPE":"U","REF_FRAME":"TEME","SEMIMAJOR_AXIS":"6785.055","DECAY_DATE":null,"MEAN_ELEMENT_THEORY":"SGP4","TLE_LINE1":"1 46046U 20055V   21311.86483746  .00236976  00000-0  35837-2 0  9997","SITE":"AFETR","ECCENTRICITY":"0.00025530","TLE_LINE2":"2 46046  53.0559   8.5722 0002553 120.5747 239.5514 15.53362081 70622","PERIAPSIS":"405.188","MEAN_MOTION":"15.53362081","COUNTRY_CODE":"US","NORAD_CAT_ID":"46046","RA_OF_ASC_NODE":"8.5722","TIME_SYSTEM":"UTC","GP_ID":"189213992","ELEMENT_SET_NO":"999","OBJECT_NAME":"STARLINK-1514","FILE":"3207836","INCLINATION":"53.0559","EPOCH":"2021-11-07T20:45:21.956544","BSTAR":"0.00358370000000","CENTER_NAME":"EARTH","MEAN_MOTION_DDOT":"0.0000000000000","MEAN_ANOMALY":"239.5514","OBJECT_TYPE":"PAYLOAD","APOAPSIS":"408.652","REV_AT_EPOCH":"7062","PERIOD":"92.702","OBJECT_ID":"2020-055V","RCS_SIZE":"LARGE","MEAN_MOTION_DOT":"0.00236976"},{"DECAY_DATE":null,"SEMIMAJOR_AXIS":"6925.342","MEAN_ELEMENT_THEORY":"SGP4","LAUNCH_DATE":"2020-08-07","ARG_OF_PERICENTER":"70.7392","EPHEMERIS_TYPE":"0","REF_FRAME":"TEME","CLASSIFICATION_TYPE":"U","ECCENTRICITY":"0.00014300","TLE_LINE1":"1 46047U 20055W   21311.89904210 -.00001224  00000-0 -63287-4 0  9995","SITE":"AFETR","GP_ID":"189214743","ELEMENT_SET_NO":"999","TIME_SYSTEM":"UTC","RA_OF_ASC_NODE":"22.0523","NORAD_CAT_ID":"46047","INCLINATION":"53.0574","FILE":"3207836","OBJECT_NAME":"STARLINK-1524","TLE_LINE2":"2 46047  53.0574  22.0523 0001430  70.7392 289.3752 15.06402114 70464","COUNTRY_CODE":"US","MEAN_MOTION":"15.06402114","PERIAPSIS":"546.217","PERIOD":"95.592","REV_AT_EPOCH":"7046","MEAN_MOTION_DOT":"-0.00001224","RCS_SIZE":"LARGE","OBJECT_ID":"2020-055W","MEAN_MOTION_DDOT":"0.0000000000000","CENTER_NAME":"EARTH","EPOCH":"2021-11-07T21:34:37.237440","BSTAR":"-0.00006328700000","OBJECT_TYPE":"PAYLOAD","APOAPSIS":"548.197","MEAN_ANOMALY":"289.3752"},{"SITE":"AFETR","TLE_LINE1":"1 46048U 20055X   21311.89538013  .00017595  00000-0  11979-2 0  9995","ECCENTRICITY":"0.00013660","CLASSIFICATION_TYPE":"U","REF_FRAME":"TEME","EPHEMERIS_TYPE":"0","ARG_OF_PERICENTER":"73.1607","LAUNCH_DATE":"2020-08-07","MEAN_ELEMENT_THEORY":"SGP4","SEMIMAJOR_AXIS":"6925.417","DECAY_DATE":null,"MEAN_ANOMALY":"286.9532","OBJECT_TYPE":"PAYLOAD","APOAPSIS":"548.228","BSTAR":"0.00119790000000","EPOCH":"2021-11-07T21:29:20.843232","CENTER_NAME":"EARTH","MEAN_MOTION_DDOT":"0.0000000000000","OBJECT_ID":"2020-055X","MEAN_MOTION_DOT":"0.00017595","RCS_SIZE":"LARGE","REV_AT_EPOCH":"7044","PERIOD":"95.594","PERIAPSIS":"546.336","COUNTRY_CODE":"US","MEAN_MOTION":"15.06377696","TLE_LINE2":"2 46048  53.0536  22.0605 0001366  73.1607 286.9532 15.06377696 70441","INCLINATION":"53.0536","FILE":"3207836","OBJECT_NAME":"STARLINK-1527","RA_OF_ASC_NODE":"22.0605","NORAD_CAT_ID":"46048","GP_ID":"189214988","ELEMENT_SET_NO":"999","TIME_SYSTEM":"UTC"},{"CENTER_NAME":"EARTH","MEAN_MOTION_DDOT":"0.0000000000000","EPOCH":"2021-11-07T21:24:01.551168","BSTAR":"0.00085501000000","OBJECT_TYPE":"PAYLOAD","MEAN_ANOMALY":"290.4697","APOAPSIS":"548.203","PERIOD":"95.593","REV_AT_EPOCH":"7047","MEAN_MOTION_DOT":"0.00012470","RCS_SIZE":"LARGE","OBJECT_ID":"2020-055Y","TLE_LINE2":"2 46049  53.0551  22.0823 0001339  69.6436 290.4697 15.06379802 70477","COUNTRY_CODE":"US","MEAN_MOTION":"15.06379802","PERIAPSIS":"546.348","GP_ID":"189213242","ELEMENT_SET_NO":"999","TIME_SYSTEM":"UTC","RA_OF_ASC_NODE":"22.0823","NORAD_CAT_ID":"46049","INCLINATION":"53.0551","FILE":"3207836","OBJECT_NAME":"STARLINK-1530","TLE_LINE1":"1 46049U 20055Y   21311.89168462  .00012470  00000-0  85501-3 0  9993","SITE":"AFETR","ECCENTRICITY":"0.00013390","LAUNCH_DATE":"2020-08-07","EPHEMERIS_TYPE":"0","ARG_OF_PERICENTER":"69.6436","REF_FRAME":"TEME","CLASSIFICATION_TYPE":"U","DECAY_DATE":null,"SEMIMAJOR_AXIS":"6925.410","MEAN_ELEMENT_THEORY":"SGP4"},{"LAUNCH_DATE":"2020-08-07","ARG_OF_PERICENTER":"52.3844","EPHEMERIS_TYPE":"0","REF_FRAME":"TEME","CLASSIFICATION_TYPE":"U","DECAY_DATE":null,"SEMIMAJOR_AXIS":"6815.406","MEAN_ELEMENT_THEORY":"SGP4","TLE_LINE1":"1 46050U 20055Z   21311.87440968  .00106966  00000-0  23659-2 0  9996","SITE":"AFETR","ECCENTRICITY":"0.00013940","TLE_LINE2":"2 46050  53.0560   8.9675 0001394  52.3844 307.7288 15.42997201 70657","COUNTRY_CODE":"US","MEAN_MOTION":"15.42997201","PERIAPSIS":"436.321","ELEMENT_SET_NO":"999","GP_ID":"189213492","TIME_SYSTEM":"UTC","RA_OF_ASC_NODE":"8.9675","NORAD_CAT_ID":"46050","INCLINATION":"53.0560","OBJECT_NAME":"STARLINK-1535","FILE":"3207836","CENTER_NAME":"EARTH","MEAN_MOTION_DDOT":"0.0000000000000","BSTAR":"0.00236590000000","EPOCH":"2021-11-07T20:59:08.996352","OBJECT_TYPE":"PAYLOAD","MEAN_ANOMALY":"307.7288","APOAPSIS":"438.221","PERIOD":"93.325","REV_AT_EPOCH":"7065","MEAN_MOTION_DOT":"0.00106966","RCS_SIZE":"LARGE","OBJECT_ID":"2020-055Z"},{"ECCENTRICITY":"0.00014550","TLE_LINE1":"1 46051U 20055AA  21311.59678661  .00000997  00000-0  85811-4 0  9996","SITE":"AFETR","DECAY_DATE":null,"SEMIMAJOR_AXIS":"6925.385","MEAN_ELEMENT_THEORY":"SGP4","LAUNCH_DATE":"2020-08-07","ARG_OF_PERICENTER":"64.7250","EPHEMERIS_TYPE":"0","REF_FRAME":"TEME","CLASSIFICATION_TYPE":"U","PERIOD":"95.593","REV_AT_EPOCH":"7043","MEAN_MOTION_DOT":"0.00000997","RCS_SIZE":"LARGE","OBJECT_ID":"2020-055AA","CENTER_NAME":"EARTH","MEAN_MOTION_DDOT":"0.0000000000000","EPOCH":"2021-11-07T14:19:22.363104","BSTAR":"0.00008581100000","MEAN_ANOMALY":"295.3889","OBJECT_TYPE":"PAYLOAD","APOAPSIS":"548.257","ELEMENT_SET_NO":"999","GP_ID":"189214243","TIME_SYSTEM":"UTC","RA_OF_ASC_NODE":"23.4060","NORAD_CAT_ID":"46051","INCLINATION":"53.0544","OBJECT_NAME":"STARLINK-1540","FILE":"3207836","TLE_LINE2":"2 46051  53.0544  23.4060 0001455  64.7250 295.3889 15.06388211 70436","COUNTRY_CODE":"US","MEAN_MOTION":"15.06388211","PERIAPSIS":"546.242"},{"SEMIMAJOR_AXIS":"6925.415","DECAY_DATE":null,"MEAN_ELEMENT_THEORY":"SGP4","ARG_OF_PERICENTER":"77.8205","EPHEMERIS_TYPE":"0","LAUNCH_DATE":"2020-08-07","CLASSIFICATION_TYPE":"U","REF_FRAME":"TEME","ECCENTRICITY":"0.00013800","TLE_LINE1":"1 46052U 20055AB  21311.58205694  .00001163  00000-0  97004-4 0  9991","SITE":"AFETR","RA_OF_ASC_NODE":"23.4693","NORAD_CAT_ID":"46052","GP_ID":"189179143","ELEMENT_SET_NO":"999","TIME_SYSTEM":"UTC","INCLINATION":"53.0539","FILE":"3207387","OBJECT_NAME":"STARLINK-1541","TLE_LINE2":"2 46052  53.0539  23.4693 0001380  77.8205 282.2938 15.06378338 70399","PERIAPSIS":"546.324","COUNTRY_CODE":"US","MEAN_MOTION":"15.06378338","REV_AT_EPOCH":"7039","PERIOD":"95.594","OBJECT_ID":"2020-055AB","MEAN_MOTION_DOT":"0.00001163","RCS_SIZE":"LARGE","EPOCH":"2021-11-07T13:58:09.719616","BSTAR":"0.00009700400000","CENTER_NAME":"EARTH","MEAN_MOTION_DDOT":"0.0000000000000","OBJECT_TYPE":"PAYLOAD","MEAN_ANOMALY":"282.2938","APOAPSIS":"548.236"}];
